{
    "bodies": [
        {
            "name": "TNO-997",
            "mass": 0,
            "semi_major_axis": 490.771484375,
            "eccentricity": 0.09736328124999998,
            "inclination": 0.4248274570894401,
            "longitude_of_ascending_node": 4.567122827486696,
            "argument_of_perihelion": 5.354725737834587,
            "mean_anomaly": 5.960936076762068
        },
        {
            "name": "TNO-998",
            "mass": 0,
            "semi_major_axis": 491.11328125,
            "eccentricity": 0.09746093749999998,
            "inclination": 0.42525356286385274,
            "longitude_of_ascending_node": 6.127576613816746,
            "argument_of_perihelion": 4.705684199318888,
            "mean_anomaly": 4.701102111282684
        },
        {
            "name": "TNO-999",
            "mass": 0,
            "semi_major_axis": 491.455078125,
            "eccentricity": 0.09755859374999998,
            "inclination": 0.42567966863826545,
            "longitude_of_ascending_node": 1.8383297617343968,
            "argument_of_perihelion": 4.808934531812544,
            "mean_anomaly": 0.9515996432341177
        },
        {
            "name": "TNO-1000",
            "mass": 0,
            "semi_major_axis": 491.796875,
            "eccentricity": 0.09765624999999997,
            "inclination": 0.4261057744126781,
            "longitude_of_ascending_node": 5.586377693401657,
            "argument_of_perihelion": 3.7766609623590512,
            "mean_anomaly": 5.81277596725168
        },
        {
            "name": "TNO-1001",
            "mass": 0,
            "semi_major_axis": 492.138671875,
            "eccentricity": 0.09775390624999998,
            "inclination": 0.42653188018709076,
            "longitude_of_ascending_node": 2.7732139514811114,
            "argument_of_perihelion": 4.663322616862323,
            "mean_anomaly": 6.015083329336684
        },
        {
            "name": "TNO-1002",
            "mass": 0,
            "semi_major_axis": 492.48046875,
            "eccentricity": 0.09785156249999998,
            "inclination": 0.4269579859615035,
            "longitude_of_ascending_node": 1.7293389958257983,
            "argument_of_perihelion": 1.153121565969419,
            "mean_anomaly": 3.245286271971482
        },
        {
            "name": "TNO-1003",
            "mass": 0,
            "semi_major_axis": 492.822265625,
            "eccentricity": 0.09794921874999998,
            "inclination": 0.4273840917359161,
            "longitude_of_ascending_node": 5.707699962555295,
            "argument_of_perihelion": 0.5516652214762001,
            "mean_anomaly": 5.374466843221383
        },
        {
            "name": "TNO-1004",
            "mass": 0,
            "semi_major_axis": 493.1640625,
            "eccentricity": 0.09804687499999998,
            "inclination": 0.42781019751032884,
            "longitude_of_ascending_node": 0.1359534056794299,
            "argument_of_perihelion": 3.2365628857690076,
            "mean_anomaly": 1.9683387446380027
        },
        {
            "name": "TNO-1005",
            "mass": 0,
            "semi_major_axis": 493.505859375,
            "eccentricity": 0.09814453124999997,
            "inclination": 0.4282363032847415,
            "longitude_of_ascending_node": 1.1765434777923782,
            "argument_of_perihelion": 4.102446746699562,
            "mean_anomaly": 3.223230557667247
        },
        {
            "name": "TNO-1006",
            "mass": 0,
            "semi_major_axis": 493.84765625,
            "eccentricity": 0.09824218749999998,
            "inclination": 0.4286624090591542,
            "longitude_of_ascending_node": 0.6087043792263694,
            "argument_of_perihelion": 5.508704173307064,
            "mean_anomaly": 0.8655293198180363
        },
        {
            "name": "TNO-1007",
            "mass": 0,
            "semi_major_axis": 494.189453125,
            "eccentricity": 0.09833984374999998,
            "inclination": 0.42908851483356686,
            "longitude_of_ascending_node": 0.5358562108845171,
            "argument_of_perihelion": 4.87657564340028,
            "mean_anomaly": 1.9453495226945123
        },
        {
            "name": "TNO-1008",
            "mass": 0,
            "semi_major_axis": 494.53125,
            "eccentricity": 0.09843749999999998,
            "inclination": 0.4295146206079795,
            "longitude_of_ascending_node": 3.4029001254561693,
            "argument_of_perihelion": 5.276472938327853,
            "mean_anomaly": 5.248885182916381
        },
        {
            "name": "TNO-1009",
            "mass": 0,
            "semi_major_axis": 494.873046875,
            "eccentricity": 0.09853515624999998,
            "inclination": 0.4299407263823922,
            "longitude_of_ascending_node": 4.650139768613158,
            "argument_of_perihelion": 4.097216566467987,
            "mean_anomaly": 2.686969838948034
        },
        {
            "name": "TNO-1010",
            "mass": 0,
            "semi_major_axis": 495.21484375,
            "eccentricity": 0.09863281249999997,
            "inclination": 0.4303668321568049,
            "longitude_of_ascending_node": 3.89482435509981,
            "argument_of_perihelion": 0.8907107875198216,
            "mean_anomaly": 4.158675005678733
        },
        {
            "name": "TNO-1011",
            "mass": 0,
            "semi_major_axis": 495.556640625,
            "eccentricity": 0.09873046874999998,
            "inclination": 0.4307929379312176,
            "longitude_of_ascending_node": 4.126765608896179,
            "argument_of_perihelion": 1.6802177920721122,
            "mean_anomaly": 2.4775579251673077
        },
        {
            "name": "TNO-1012",
            "mass": 0,
            "semi_major_axis": 495.8984375,
            "eccentricity": 0.09882812499999998,
            "inclination": 0.43121904370563025,
            "longitude_of_ascending_node": 3.6482561401249307,
            "argument_of_perihelion": 2.4723625628685317,
            "mean_anomaly": 4.827660507972554
        },
        {
            "name": "TNO-1013",
            "mass": 0,
            "semi_major_axis": 496.240234375,
            "eccentricity": 0.09892578124999998,
            "inclination": 0.4316451494800429,
            "longitude_of_ascending_node": 0.6043564455208371,
            "argument_of_perihelion": 2.5038884414165383,
            "mean_anomaly": 4.036853464453433
        },
        {
            "name": "TNO-1014",
            "mass": 0,
            "semi_major_axis": 496.58203125,
            "eccentricity": 0.09902343749999998,
            "inclination": 0.4320712552544556,
            "longitude_of_ascending_node": 4.31736725120539,
            "argument_of_perihelion": 1.7131842932611212,
            "mean_anomaly": 1.1365940496811922
        },
        {
            "name": "TNO-1015",
            "mass": 0,
            "semi_major_axis": 496.923828125,
            "eccentricity": 0.09912109374999997,
            "inclination": 0.43249736102886827,
            "longitude_of_ascending_node": 5.165529338219369,
            "argument_of_perihelion": 5.925618061888918,
            "mean_anomaly": 2.786848842720357
        },
        {
            "name": "TNO-1016",
            "mass": 0,
            "semi_major_axis": 497.265625,
            "eccentricity": 0.09921874999999998,
            "inclination": 0.432923466803281,
            "longitude_of_ascending_node": 1.3625107446960292,
            "argument_of_perihelion": 3.459661828375343,
            "mean_anomaly": 1.8230592199378295
        },
        {
            "name": "TNO-1017",
            "mass": 0,
            "semi_major_axis": 497.607421875,
            "eccentricity": 0.09931640624999998,
            "inclination": 0.43334957257769363,
            "longitude_of_ascending_node": 5.018522620607453,
            "argument_of_perihelion": 2.820617489682446,
            "mean_anomaly": 4.971664783478574
        },
        {
            "name": "TNO-1018",
            "mass": 0,
            "semi_major_axis": 497.94921875,
            "eccentricity": 0.09941406249999998,
            "inclination": 0.43377567835210634,
            "longitude_of_ascending_node": 5.835956037881582,
            "argument_of_perihelion": 2.2785881856166688,
            "mean_anomaly": 0.4005717458324007
        },
        {
            "name": "TNO-1019",
            "mass": 0,
            "semi_major_axis": 498.291015625,
            "eccentricity": 0.09951171874999998,
            "inclination": 0.434201784126519,
            "longitude_of_ascending_node": 2.510223803830066,
            "argument_of_perihelion": 2.548321460568386,
            "mean_anomaly": 3.298494936374529
        },
        {
            "name": "TNO-1020",
            "mass": 0,
            "semi_major_axis": 498.6328125,
            "eccentricity": 0.09960937499999997,
            "inclination": 0.43462788990093165,
            "longitude_of_ascending_node": 5.637635985399814,
            "argument_of_perihelion": 2.7623059839511357,
            "mean_anomaly": 1.5027105068538467
        },
        {
            "name": "TNO-1021",
            "mass": 0,
            "semi_major_axis": 498.974609375,
            "eccentricity": 0.09970703124999998,
            "inclination": 0.43505399567534436,
            "longitude_of_ascending_node": 4.733305671515017,
            "argument_of_perihelion": 4.461418188978239,
            "mean_anomaly": 6.18370291807088
        },
        {
            "name": "TNO-1022",
            "mass": 0,
            "semi_major_axis": 499.31640625,
            "eccentricity": 0.09980468749999998,
            "inclination": 0.435480101449757,
            "longitude_of_ascending_node": 0.2962882960938208,
            "argument_of_perihelion": 5.352246608235886,
            "mean_anomaly": 3.5030581281178628
        }
    ]
}